[{"CCSDS_OMM_VERS":"2.0","COMMENT":"GENERATED VIA SPACE-TRACK.ORG API","CREATION_DATE":"2022-01-09T15:16:16","ORIGINATOR":"18 SPCS","OBJECT_NAME":"STARLINK-1098","OBJECT_ID":"2020-001D","CENTER_NAME":"EARTH","REF_FRAME":"TEME","TIME_SYSTEM":"UTC","MEAN_ELEMENT_THEORY":"SGP4","EPOCH":"2022-01-09T07:32:06.616608","MEAN_MOTION":"15.06401955","ECCENTRICITY":"0.00016650","INCLINATION":"53.0550","RA_OF_ASC_NODE":"331.8556","ARG_OF_PERICENTER":"63.8275","MEAN_ANOMALY":"296.2885","EPHEMERIS_TYPE":"0","CLASSIFICATION_TYPE":"U","NORAD_CAT_ID":"44917","ELEMENT_SET_NO":"999","REV_AT_EPOCH":"11069","BSTAR":"0.00015106000000","MEAN_MOTION_DOT":"0.00001969","MEAN_MOTION_DDOT":"0.0000000000000","SEMIMAJOR_AXIS":"6925.343","PERIOD":"95.592","APOAPSIS":"548.361","PERIAPSIS":"546.054","OBJECT_TYPE":"PAYLOAD","RCS_SIZE":"LARGE","COUNTRY_CODE":"US","LAUNCH_DATE":"2020-01-07","SITE":"AFETR","DECAY_DATE":null,"FILE":"3268027","GP_ID":"193505428","TLE_LINE0":"0 STARLINK-1098","TLE_LINE1":"1 44917U 20001D   22009.31396547  .00001969  00000-0  15106-3 0  9990","TLE_LINE2":"2 44917  53.0550 331.8556 0001665  63.8275 296.2885 15.06401955110698"},{"CCSDS_OMM_VERS":"2.0","COMMENT":"GENERATED VIA SPACE-TRACK.ORG API","CREATION_DATE":"2022-01-09T17:57:46","ORIGINATOR":"18 SPCS","OBJECT_NAME":"STARLINK-1098","OBJECT_ID":"2020-001D","CENTER_NAME":"EARTH","REF_FRAME":"TEME","TIME_SYSTEM":"UTC","MEAN_ELEMENT_THEORY":"SGP4","EPOCH":"2022-01-09T13:54:15.884928","MEAN_MOTION":"15.06404703","ECCENTRICITY":"0.00016690","INCLINATION":"53.0550","RA_OF_ASC_NODE":"330.6643","ARG_OF_PERICENTER":"63.9432","MEAN_ANOMALY":"296.1729","EPHEMERIS_TYPE":"0","CLASSIFICATION_TYPE":"U","NORAD_CAT_ID":"44917","ELEMENT_SET_NO":"999","REV_AT_EPOCH":"11073","BSTAR":"0.00016113000000","MEAN_MOTION_DOT":"0.00002120","MEAN_MOTION_DDOT":"0.0000000000000","SEMIMAJOR_AXIS":"6925.334","PERIOD":"95.592","APOAPSIS":"548.355","PERIAPSIS":"546.043","OBJECT_TYPE":"PAYLOAD","RCS_SIZE":"LARGE","COUNTRY_CODE":"US","LAUNCH_DATE":"2020-01-07","SITE":"AFETR","DECAY_DATE":null,"FILE":"3268062","GP_ID":"193524762","TLE_LINE0":"0 STARLINK-1098","TLE_LINE1":"1 44917U 20001D   22009.57935052  .00002120  00000-0  16113-3 0  9997","TLE_LINE2":"2 44917  53.0550 330.6643 0001669  63.9432 296.1729 15.06404703110737"},{"CCSDS_OMM_VERS":"2.0","COMMENT":"GENERATED VIA SPACE-TRACK.ORG API","CREATION_DATE":"2022-01-10T18:45:40","ORIGINATOR":"18 SPCS","OBJECT_NAME":"STARLINK-1098","OBJECT_ID":"2020-001D","CENTER_NAME":"EARTH","REF_FRAME":"TEME","TIME_SYSTEM":"UTC","MEAN_ELEMENT_THEORY":"SGP4","EPOCH":"2022-01-10T13:47:21.679008","MEAN_MOTION":"15.06398632","ECCENTRICITY":"0.00016670","INCLINATION":"53.0545","RA_OF_ASC_NODE":"326.1966","ARG_OF_PERICENTER":"63.2314","MEAN_ANOMALY":"296.8845","EPHEMERIS_TYPE":"0","CLASSIFICATION_TYPE":"U","NORAD_CAT_ID":"44917","ELEMENT_SET_NO":"999","REV_AT_EPOCH":"11088","BSTAR":"0.00004180100000","MEAN_MOTION_DOT":"0.00000341","MEAN_MOTION_DDOT":"0.0000000000000","SEMIMAJOR_AXIS":"6925.353","PERIOD":"95.592","APOAPSIS":"548.372","PERIAPSIS":"546.063","OBJECT_TYPE":"PAYLOAD","RCS_SIZE":"LARGE","COUNTRY_CODE":"US","LAUNCH_DATE":"2020-01-07","SITE":"AFETR","DECAY_DATE":null,"FILE":"3268856","GP_ID":"193593183","TLE_LINE0":"0 STARLINK-1098","TLE_LINE1":"1 44917U 20001D   22010.57455647  .00000341  00000-0  41801-4 0  9992","TLE_LINE2":"2 44917  53.0545 326.1966 0001667  63.2314 296.8845 15.06398632110884"},{"CCSDS_OMM_VERS":"2.0","COMMENT":"GENERATED VIA SPACE-TRACK.ORG API","CREATION_DATE":"2022-01-10T22:56:12","ORIGINATOR":"18 SPCS","OBJECT_NAME":"STARLINK-1098","OBJECT_ID":"2020-001D","CENTER_NAME":"EARTH","REF_FRAME":"TEME","TIME_SYSTEM":"UTC","MEAN_ELEMENT_THEORY":"SGP4","EPOCH":"2022-01-10T13:47:21.679008","MEAN_MOTION":"15.06398632","ECCENTRICITY":"0.00016670","INCLINATION":"53.0545","RA_OF_ASC_NODE":"326.1966","ARG_OF_PERICENTER":"63.2314","MEAN_ANOMALY":"296.8845","EPHEMERIS_TYPE":"0","CLASSIFICATION_TYPE":"U","NORAD_CAT_ID":"44917","ELEMENT_SET_NO":"999","REV_AT_EPOCH":"11088","BSTAR":"0.00004180100000","MEAN_MOTION_DOT":"0.00000341","MEAN_MOTION_DDOT":"0.0000000000000","SEMIMAJOR_AXIS":"6925.353","PERIOD":"95.592","APOAPSIS":"548.372","PERIAPSIS":"546.063","OBJECT_TYPE":"PAYLOAD","RCS_SIZE":"LARGE","COUNTRY_CODE":"US","LAUNCH_DATE":"2020-01-07","SITE":"AFETR","DECAY_DATE":null,"FILE":"3269027","GP_ID":"193601581","TLE_LINE0":"0 STARLINK-1098","TLE_LINE1":"1 44917U 20001D   22010.57455647  .00000341  00000-0  41801-4 0  9992","TLE_LINE2":"2 44917  53.0545 326.1966 0001667  63.2314 296.8845 15.06398632110884"},{"CCSDS_OMM_VERS":"2.0","COMMENT":"GENERATED VIA SPACE-TRACK.ORG API","CREATION_DATE":"2022-01-11T21:07:29","ORIGINATOR":"18 SPCS","OBJECT_NAME":"STARLINK-1098","OBJECT_ID":"2020-001D","CENTER_NAME":"EARTH","REF_FRAME":"TEME","TIME_SYSTEM":"UTC","MEAN_ELEMENT_THEORY":"SGP4","EPOCH":"2022-01-11T13:40:27.571584","MEAN_MOTION":"15.06393518","ECCENTRICITY":"0.00015580","INCLINATION":"53.0542","RA_OF_ASC_NODE":"321.7294","ARG_OF_PERICENTER":"63.4970","MEAN_ANOMALY":"296.6178","EPHEMERIS_TYPE":"0","CLASSIFICATION_TYPE":"U","NORAD_CAT_ID":"44917","ELEMENT_SET_NO":"999","REV_AT_EPOCH":"11103","BSTAR":"-0.00008534000000","MEAN_MOTION_DOT":"-0.00001552","MEAN_MOTION_DDOT":"0.0000000000000","SEMIMAJOR_AXIS":"6925.368","PERIOD":"95.593","APOAPSIS":"548.312","PERIAPSIS":"546.154","OBJECT_TYPE":"PAYLOAD","RCS_SIZE":"LARGE","COUNTRY_CODE":"US","LAUNCH_DATE":"2020-01-07","SITE":"AFETR","DECAY_DATE":null,"FILE":"3269657","GP_ID":"193661382","TLE_LINE0":"0 STARLINK-1098","TLE_LINE1":"1 44917U 20001D   22011.56976356 -.00001552  00000-0 -85340-4 0  9990","TLE_LINE2":"2 44917  53.0542 321.7294 0001558  63.4970 296.6178 15.06393518111038"},{"CCSDS_OMM_VERS":"2.0","COMMENT":"GENERATED VIA SPACE-TRACK.ORG API","CREATION_DATE":"2022-01-11T22:56:19","ORIGINATOR":"18 SPCS","OBJECT_NAME":"STARLINK-1098","OBJECT_ID":"2020-001D","CENTER_NAME":"EARTH","REF_FRAME":"TEME","TIME_SYSTEM":"UTC","MEAN_ELEMENT_THEORY":"SGP4","EPOCH":"2022-01-11T13:40:27.571584","MEAN_MOTION":"15.06393518","ECCENTRICITY":"0.00015580","INCLINATION":"53.0542","RA_OF_ASC_NODE":"321.7294","ARG_OF_PERICENTER":"63.4970","MEAN_ANOMALY":"296.6178","EPHEMERIS_TYPE":"0","CLASSIFICATION_TYPE":"U","NORAD_CAT_ID":"44917","ELEMENT_SET_NO":"999","REV_AT_EPOCH":"11103","BSTAR":"-0.00008534000000","MEAN_MOTION_DOT":"-0.00001552","MEAN_MOTION_DDOT":"0.0000000000000","SEMIMAJOR_AXIS":"6925.368","PERIOD":"95.593","APOAPSIS":"548.312","PERIAPSIS":"546.154","OBJECT_TYPE":"PAYLOAD","RCS_SIZE":"LARGE","COUNTRY_CODE":"US","LAUNCH_DATE":"2020-01-07","SITE":"AFETR","DECAY_DATE":null,"FILE":"3269835","GP_ID":"193668151","TLE_LINE0":"0 STARLINK-1098","TLE_LINE1":"1 44917U 20001D   22011.56976356 -.00001552  00000-0 -85340-4 0  9990","TLE_LINE2":"2 44917  53.0542 321.7294 0001558  63.4970 296.6178 15.06393518111038"},{"CCSDS_OMM_VERS":"2.0","COMMENT":"GENERATED VIA SPACE-TRACK.ORG API","CREATION_DATE":"2022-01-12T19:34:57","ORIGINATOR":"18 SPCS","OBJECT_NAME":"STARLINK-1098","OBJECT_ID":"2020-001D","CENTER_NAME":"EARTH","REF_FRAME":"TEME","TIME_SYSTEM":"UTC","MEAN_ELEMENT_THEORY":"SGP4","EPOCH":"2022-01-12T13:33:32.835168","MEAN_MOTION":"15.06394527","ECCENTRICITY":"0.00015680","INCLINATION":"53.0541","RA_OF_ASC_NODE":"317.2618","ARG_OF_PERICENTER":"61.5554","MEAN_ANOMALY":"298.5593","EPHEMERIS_TYPE":"0","CLASSIFICATION_TYPE":"U","NORAD_CAT_ID":"44917","ELEMENT_SET_NO":"999","REV_AT_EPOCH":"11118","BSTAR":"0.00001565900000","MEAN_MOTION_DOT":"-0.00000048","MEAN_MOTION_DDOT":"0.0000000000000","SEMIMAJOR_AXIS":"6925.365","PERIOD":"95.592","APOAPSIS":"548.316","PERIAPSIS":"546.144","OBJECT_TYPE":"PAYLOAD","RCS_SIZE":"LARGE","COUNTRY_CODE":"US","LAUNCH_DATE":"2020-01-07","SITE":"AFETR","DECAY_DATE":null,"FILE":"3270709","GP_ID":"193731390","TLE_LINE0":"0 STARLINK-1098","TLE_LINE1":"1 44917U 20001D   22012.56496337 -.00000048  00000-0  15659-4 0  9991","TLE_LINE2":"2 44917  53.0541 317.2618 0001568  61.5554 298.5593 15.06394527111184"},{"CCSDS_OMM_VERS":"2.0","COMMENT":"GENERATED VIA SPACE-TRACK.ORG API","CREATION_DATE":"2022-01-13T07:46:12","ORIGINATOR":"18 SPCS","OBJECT_NAME":"STARLINK-1098","OBJECT_ID":"2020-001D","CENTER_NAME":"EARTH","REF_FRAME":"TEME","TIME_SYSTEM":"UTC","MEAN_ELEMENT_THEORY":"SGP4","EPOCH":"2022-01-13T00:42:19.241568","MEAN_MOTION":"15.06398144","ECCENTRICITY":"0.00016690","INCLINATION":"53.0550","RA_OF_ASC_NODE":"315.1761","ARG_OF_PERICENTER":"62.9479","MEAN_ANOMALY":"297.1680","EPHEMERIS_TYPE":"0","CLASSIFICATION_TYPE":"U","NORAD_CAT_ID":"44917","ELEMENT_SET_NO":"999","REV_AT_EPOCH":"11125","BSTAR":"0.00002461500000","MEAN_MOTION_DOT":"0.00000085","MEAN_MOTION_DDOT":"0.0000000000000","SEMIMAJOR_AXIS":"6925.354","PERIOD":"95.592","APOAPSIS":"548.375","PERIAPSIS":"546.063","OBJECT_TYPE":"PAYLOAD","RCS_SIZE":"LARGE","COUNTRY_CODE":"US","LAUNCH_DATE":"2020-01-07","SITE":"AFETR","DECAY_DATE":null,"FILE":"3271408","GP_ID":"193746995","TLE_LINE0":"0 STARLINK-1098","TLE_LINE1":"1 44917U 20001D   22013.02938937  .00000085  00000-0  24615-4 0  9992","TLE_LINE2":"2 44917  53.0550 315.1761 0001669  62.9479 297.1680 15.06398144111252"}]